ONEWEB-0403             
1 50483U 21132Q   24142.47636369  .00000061  00000+0  12298-3 0  9997
2 50483  87.9120 126.0965 0001782  87.1759 272.9577 13.18685634121865
ONEWEB-0405             
1 50485U 21132S   24142.49216559  .00000055  00000+0  10676-3 0  9997
2 50485  87.9122 126.0827 0001771  99.4796 260.6536 13.18687020122266
ONEWEB-0406             
1 50486U 21132T   24142.48110185  .00000054  00000+0  10487-3 0  9994
2 50486  87.9123 126.0959 0001895  74.9145 285.2197 13.18687640121899
ONEWEB-0412             
1 50489U 21132W   24142.31195180  .00000086  00000+0  18623-3 0  9992
2 50489  87.9124 126.1309 0001742 101.5281 258.6047 13.18687885121903
ONEWEB-0413             
1 50490U 21132X   24142.39257144  .00000084  00000+0  18009-3 0  9997
2 50490  87.9124 126.1281 0002007  99.4227 260.7132 13.18688558121855
